EUTELSAT 139 WEST A     
1 28187U 04008A   26094.76475165  .00000142  00000+0  00000+0 0  9995
2 28187   5.6425  72.8685 0004452  24.5269  36.9130  1.00836691 80621
EUTELSAT 174A           
1 28924U 05052A   26095.70812223  .00000013  00000+0  00000+0 0  9996
2 28924   4.0359  77.4044 0006550 302.7791 242.7810  1.00275104 51605
EUTELSAT 33F            
1 29270U 06032A   26095.82286895  .00000158  00000+0  00000+0 0  9993
2 29270   1.4744  83.0277 0003597 295.5695 144.8355  1.00271732 46580
EUTELSAT HOTBIRD 13C    
1 33459U 08065A   26095.80631556 -.00000280  00000+0  00000+0 0  9998
2 33459   2.7644  80.0257 0004166 304.6381  49.4327  1.00273225 46611
EUTELSAT 36B            
1 36101U 09065A   26095.82633564  .00000114  00000+0  00000+0 0  9994
2 36101   0.3088  79.0250 0006015 301.4177 161.6485  1.00274038 59987
EUTELSAT KA-SAT 9A      
1 37258U 10069A   26095.83086232  .00000063  00000+0  00000+0 0  9992
2 37258   0.0602   1.4792 0003468 136.6041   4.1373  1.00269874 43282
EUTELSAT 7 WEST A       
1 37816U 11051A   26095.81480892 -.00000058  00000+0  00000+0 0  9997
2 37816   0.0789  32.6357 0001791  85.9257   1.5417  1.00272831 53157
EUTELSAT 16A            
1 37836U 11057A   26095.81948895  .00000106  00000+0  00000+0 0  9990
2 37836   0.0599  18.4294 0005557   0.8757 125.8205  1.00273504  6617
EUTELSAT 21B            
1 38992U 12062B   26095.81893338  .00000132  00000+0  00000+0 0  9991
2 38992   0.0720  12.1226 0002826   2.1817 136.2216  1.00273716 49105
EUTELSAT 70B            
1 39020U 12069A   26095.83025378 -.00000042  00000+0  00000+0 0  9995
2 39020   0.0655 357.4339 0001746  23.1657 182.9270  1.00272474 48781
EUTELSAT 117 WEST A     
1 39122U 13012A   26095.65055631 -.00000011  00000+0  00000+0 0  9998
2 39122   0.0516  58.7015 0002992 313.9342 298.7080  1.00272295 47704
EUTELSAT 7B             
1 39163U 13022A   26095.81766892  .00000050  00000+0  00000+0 0  9992
2 39163   0.0732  21.3636 0006282 350.0017 124.1062  1.00274028 47226
EXPRESS-AT1             
1 39612U 14010A   26095.82746230  .00000075  00000+0  00000+0 0  9991
2 39612   0.0758  80.7277 0001254   5.8943 101.9776  1.00282871 44092
EXPRESS-AT2             
1 39613U 14010B   26095.89194637  .00000080  00000+0  00000+0 0  9993
2 39613   0.0440  72.3707 0000257 184.0257 314.8915  1.00274338 43779
EUTELSAT 3B             
1 39773U 14030A   26095.81688894  .00000021  00000+0  00000+0 0  9992
2 39773   0.0660   0.9390 0001244  87.6137  42.7146  1.00270904 43348
EUTELSAT 115 WEST B     
1 40425U 15010B   26095.65090300 -.00000023  00000+0  00000+0 0  9991
2 40425   0.0137  61.2159 0000286 212.3995  39.7578  1.00270420 40660
EUTELSAT 8 WEST B       
1 40875U 15039B   26095.81472226 -.00000064  00000+0  00000+0 0  9995
2 40875   0.0702  11.9708 0003808   4.3900 103.0606  1.00272401 38932
