[{"OBJECT_NAME":"EUTELSAT 139 WEST A","OBJECT_ID":"2004-008A","EPOCH":"2026-04-04T18:21:14.542560","MEAN_MOTION":1.00836691,"ECCENTRICITY":0.00044523,"INCLINATION":5.6425,"RA_OF_ASC_NODE":72.8685,"ARG_OF_PERICENTER":24.5269,"MEAN_ANOMALY":36.913,"EPHEMERIS_TYPE":0,"CLASSIFICATION_TYPE":"U","NORAD_CAT_ID":28187,"ELEMENT_SET_NO":999,"REV_AT_EPOCH":8062,"BSTAR":0,"MEAN_MOTION_DOT":1.42e-6,"MEAN_MOTION_DDOT":0},{"OBJECT_NAME":"EUTELSAT 174A","OBJECT_ID":"2005-052A","EPOCH":"2026-04-05T16:59:41.760672","MEAN_MOTION":1.00275104,"ECCENTRICITY":0.000655,"INCLINATION":4.0359,"RA_OF_ASC_NODE":77.4044,"ARG_OF_PERICENTER":302.7791,"MEAN_ANOMALY":242.781,"EPHEMERIS_TYPE":0,"CLASSIFICATION_TYPE":"U","NORAD_CAT_ID":28924,"ELEMENT_SET_NO":999,"REV_AT_EPOCH":5160,"BSTAR":0,"MEAN_MOTION_DOT":1.3e-7,"MEAN_MOTION_DDOT":0},{"OBJECT_NAME":"EUTELSAT 33F","OBJECT_ID":"2006-032A","EPOCH":"2026-04-05T19:44:55.877280","MEAN_MOTION":1.00271732,"ECCENTRICITY":0.0003597,"INCLINATION":1.4744,"RA_OF_ASC_NODE":83.0277,"ARG_OF_PERICENTER":295.5695,"MEAN_ANOMALY":144.8355,"EPHEMERIS_TYPE":0,"CLASSIFICATION_TYPE":"U","NORAD_CAT_ID":29270,"ELEMENT_SET_NO":999,"REV_AT_EPOCH":4658,"BSTAR":0,"MEAN_MOTION_DOT":1.58e-6,"MEAN_MOTION_DDOT":0},{"OBJECT_NAME":"EUTELSAT HOTBIRD 13C","OBJECT_ID":"2008-065A","EPOCH":"2026-04-05T19:21:05.664384","MEAN_MOTION":1.00273225,"ECCENTRICITY":0.0004166,"INCLINATION":2.7644,"RA_OF_ASC_NODE":80.0257,"ARG_OF_PERICENTER":304.6381,"MEAN_ANOMALY":49.4327,"EPHEMERIS_TYPE":0,"CLASSIFICATION_TYPE":"U","NORAD_CAT_ID":33459,"ELEMENT_SET_NO":999,"REV_AT_EPOCH":4661,"BSTAR":0,"MEAN_MOTION_DOT":-2.8e-6,"MEAN_MOTION_DDOT":0},{"OBJECT_NAME":"EUTELSAT 36B","OBJECT_ID":"2009-065A","EPOCH":"2026-04-05T19:49:55.399296","MEAN_MOTION":1.00274038,"ECCENTRICITY":0.0006015,"INCLINATION":0.3088,"RA_OF_ASC_NODE":79.025,"ARG_OF_PERICENTER":301.4177,"MEAN_ANOMALY":161.6485,"EPHEMERIS_TYPE":0,"CLASSIFICATION_TYPE":"U","NORAD_CAT_ID":36101,"ELEMENT_SET_NO":999,"REV_AT_EPOCH":5998,"BSTAR":0,"MEAN_MOTION_DOT":1.14e-6,"MEAN_MOTION_DDOT":0},{"OBJECT_NAME":"EUTELSAT KA-SAT 9A","OBJECT_ID":"2010-069A","EPOCH":"2026-04-05T19:56:26.504448","MEAN_MOTION":1.00269874,"ECCENTRICITY":0.0003468,"INCLINATION":0.0602,"RA_OF_ASC_NODE":1.4792,"ARG_OF_PERICENTER":136.6041,"MEAN_ANOMALY":4.1373,"EPHEMERIS_TYPE":0,"CLASSIFICATION_TYPE":"U","NORAD_CAT_ID":37258,"ELEMENT_SET_NO":999,"REV_AT_EPOCH":4328,"BSTAR":0,"MEAN_MOTION_DOT":6.3e-7,"MEAN_MOTION_DDOT":0},{"OBJECT_NAME":"EUTELSAT 7 WEST A","OBJECT_ID":"2011-051A","EPOCH":"2026-04-05T19:33:19.490688","MEAN_MOTION":1.00272831,"ECCENTRICITY":0.0001791,"INCLINATION":0.0789,"RA_OF_ASC_NODE":32.6357,"ARG_OF_PERICENTER":85.9257,"MEAN_ANOMALY":1.5417,"EPHEMERIS_TYPE":0,"CLASSIFICATION_TYPE":"U","NORAD_CAT_ID":37816,"ELEMENT_SET_NO":999,"REV_AT_EPOCH":5315,"BSTAR":0,"MEAN_MOTION_DOT":-5.8e-7,"MEAN_MOTION_DDOT":0},{"OBJECT_NAME":"EUTELSAT 16A","OBJECT_ID":"2011-057A","EPOCH":"2026-04-05T19:40:03.845280","MEAN_MOTION":1.00273504,"ECCENTRICITY":0.0005557,"INCLINATION":0.0599,"RA_OF_ASC_NODE":18.4294,"ARG_OF_PERICENTER":0.8757,"MEAN_ANOMALY":125.8205,"EPHEMERIS_TYPE":0,"CLASSIFICATION_TYPE":"U","NORAD_CAT_ID":37836,"ELEMENT_SET_NO":999,"REV_AT_EPOCH":661,"BSTAR":0,"MEAN_MOTION_DOT":1.06e-6,"MEAN_MOTION_DDOT":0},{"OBJECT_NAME":"EUTELSAT 21B","OBJECT_ID":"2012-062B","EPOCH":"2026-04-05T19:39:15.844032","MEAN_MOTION":1.00273716,"ECCENTRICITY":0.0002826,"INCLINATION":0.072,"RA_OF_ASC_NODE":12.1226,"ARG_OF_PERICENTER":2.1817,"MEAN_ANOMALY":136.2216,"EPHEMERIS_TYPE":0,"CLASSIFICATION_TYPE":"U","NORAD_CAT_ID":38992,"ELEMENT_SET_NO":999,"REV_AT_EPOCH":4910,"BSTAR":0,"MEAN_MOTION_DOT":1.32e-6,"MEAN_MOTION_DDOT":0},{"OBJECT_NAME":"EUTELSAT 70B","OBJECT_ID":"2012-069A","EPOCH":"2026-04-05T19:55:33.926592","MEAN_MOTION":1.00272474,"ECCENTRICITY":0.0001746,"INCLINATION":0.0655,"RA_OF_ASC_NODE":357.4339,"ARG_OF_PERICENTER":23.1657,"MEAN_ANOMALY":182.927,"EPHEMERIS_TYPE":0,"CLASSIFICATION_TYPE":"U","NORAD_CAT_ID":39020,"ELEMENT_SET_NO":999,"REV_AT_EPOCH":4878,"BSTAR":0,"MEAN_MOTION_DOT":-4.2e-7,"MEAN_MOTION_DDOT":0},{"OBJECT_NAME":"EUTELSAT 117 WEST A","OBJECT_ID":"2013-012A","EPOCH":"2026-04-05T15:36:48.065184","MEAN_MOTION":1.00272295,"ECCENTRICITY":0.0002992,"INCLINATION":0.0516,"RA_OF_ASC_NODE":58.7015,"ARG_OF_PERICENTER":313.9342,"MEAN_ANOMALY":298.708,"EPHEMERIS_TYPE":0,"CLASSIFICATION_TYPE":"U","NORAD_CAT_ID":39122,"ELEMENT_SET_NO":999,"REV_AT_EPOCH":4770,"BSTAR":0,"MEAN_MOTION_DOT":-1.1e-7,"MEAN_MOTION_DDOT":0},{"OBJECT_NAME":"EUTELSAT 7B","OBJECT_ID":"2013-022A","EPOCH":"2026-04-05T19:37:26.594688","MEAN_MOTION":1.00274028,"ECCENTRICITY":0.0006282,"INCLINATION":0.0732,"RA_OF_ASC_NODE":21.3636,"ARG_OF_PERICENTER":350.0017,"MEAN_ANOMALY":124.1062,"EPHEMERIS_TYPE":0,"CLASSIFICATION_TYPE":"U","NORAD_CAT_ID":39163,"ELEMENT_SET_NO":999,"REV_AT_EPOCH":4722,"BSTAR":0,"MEAN_MOTION_DOT":5.0e-7,"MEAN_MOTION_DDOT":0},{"OBJECT_NAME":"EXPRESS-AT1","OBJECT_ID":"2014-010A","EPOCH":"2026-04-05T19:51:32.742720","MEAN_MOTION":1.00282871,"ECCENTRICITY":0.0001254,"INCLINATION":0.0758,"RA_OF_ASC_NODE":80.7277,"ARG_OF_PERICENTER":5.8943,"MEAN_ANOMALY":101.9776,"EPHEMERIS_TYPE":0,"CLASSIFICATION_TYPE":"U","NORAD_CAT_ID":39612,"ELEMENT_SET_NO":999,"REV_AT_EPOCH":4409,"BSTAR":0,"MEAN_MOTION_DOT":7.5e-7,"MEAN_MOTION_DDOT":0},{"OBJECT_NAME":"EXPRESS-AT2","OBJECT_ID":"2014-010B","EPOCH":"2026-04-05T21:24:24.166368","MEAN_MOTION":1.00274338,"ECCENTRICITY":2.57e-5,"INCLINATION":0.044,"RA_OF_ASC_NODE":72.3707,"ARG_OF_PERICENTER":184.0257,"MEAN_ANOMALY":314.8915,"EPHEMERIS_TYPE":0,"CLASSIFICATION_TYPE":"U","NORAD_CAT_ID":39613,"ELEMENT_SET_NO":999,"REV_AT_EPOCH":4377,"BSTAR":0,"MEAN_MOTION_DOT":8.0e-7,"MEAN_MOTION_DDOT":0},{"OBJECT_NAME":"EUTELSAT 3B","OBJECT_ID":"2014-030A","EPOCH":"2026-04-05T19:36:19.204416","MEAN_MOTION":1.00270904,"ECCENTRICITY":0.0001244,"INCLINATION":0.066,"RA_OF_ASC_NODE":0.939,"ARG_OF_PERICENTER":87.6137,"MEAN_ANOMALY":42.7146,"EPHEMERIS_TYPE":0,"CLASSIFICATION_TYPE":"U","NORAD_CAT_ID":39773,"ELEMENT_SET_NO":999,"REV_AT_EPOCH":4334,"BSTAR":0,"MEAN_MOTION_DOT":2.1e-7,"MEAN_MOTION_DDOT":0},{"OBJECT_NAME":"EUTELSAT 115 WEST B","OBJECT_ID":"2015-010B","EPOCH":"2026-04-05T15:37:18.019200","MEAN_MOTION":1.0027042,"ECCENTRICITY":2.86e-5,"INCLINATION":0.0137,"RA_OF_ASC_NODE":61.2159,"ARG_OF_PERICENTER":212.3995,"MEAN_ANOMALY":39.7578,"EPHEMERIS_TYPE":0,"CLASSIFICATION_TYPE":"U","NORAD_CAT_ID":40425,"ELEMENT_SET_NO":999,"REV_AT_EPOCH":4066,"BSTAR":0,"MEAN_MOTION_DOT":-2.3e-7,"MEAN_MOTION_DDOT":0},{"OBJECT_NAME":"EUTELSAT 8 WEST B","OBJECT_ID":"2015-039B","EPOCH":"2026-04-05T19:33:12.003264","MEAN_MOTION":1.00272401,"ECCENTRICITY":0.0003808,"INCLINATION":0.0702,"RA_OF_ASC_NODE":11.9708,"ARG_OF_PERICENTER":4.39,"MEAN_ANOMALY":103.0606,"EPHEMERIS_TYPE":0,"CLASSIFICATION_TYPE":"U","NORAD_CAT_ID":40875,"ELEMENT_SET_NO":999,"REV_AT_EPOCH":3893,"BSTAR":0,"MEAN_MOTION_DOT":-6.4e-7,"MEAN_MOTION_DDOT":0}]
